SEMAPHORE_L_00009046-01
1 56435U 24246GF  26070.40784722  .00000000  00000+0  00000-0 0  9999
2 56435  33.0000 225.0000 0000000   0.0000   7.5000 14.89338871    15
SEMAPHORE_L_00009046-02
1 56436U 23137BL  26070.40784722  .00000000  00000+0  00000-0 0  9998
2 56436  33.0000 225.0000 0000000   0.0000  10.5000 14.89338871    10
SEMAPHORE_L_00009046-03
1 56437U 24524QY  26070.40784722  .00000000  00000+0  00000-0 0  9990
2 56437  33.0000 225.0000 0000000   0.0000  13.5000 14.89338871    14
SEMAPHORE_L_00009046-04
1 56438U 22329LN  26070.40784722  .00000000  00000+0  00000-0 0  9992
2 56438  33.0000 225.0000 0000000   0.0000  16.5000 14.89338871    18
SEMAPHORE_L_00009046-05
1 56439U 25552ON  26070.40784722  .00000000  00000+0  00000-0 0  9994
2 56439  33.0000 225.0000 0000000   0.0000  19.5000 14.89338871    12
SEMAPHORE_L_00009046-06
1 56440U 23650XO  26070.40784722  .00000000  00000+0  00000-0 0  9993
2 56440  33.0000 225.0000 0000000   0.0000  22.5000 14.89338871    18
SEMAPHORE_L_00009046-07
1 56441U 25862IR  26070.40784722  .00000000  00000+0  00000-0 0  9991
2 56441  33.0000 225.0000 0000000   0.0000  25.5000 14.89338871    12
SEMAPHORE_L_00009046-08
1 56442U 25739UD  26070.40784722  .00000000  00000+0  00000-0 0  9995
2 56442  33.0000 225.0000 0000000   0.0000  28.5000 14.89338871    16
SEMAPHORE_L_00009046-09
1 56443U 23744PL  26070.40784722  .00000000  00000+0  00000-0 0  9990
2 56443  33.0000 225.0000 0000000   0.0000  31.5000 14.89338871    11
SEMAPHORE_L_00009046-10
1 56444U 25206TG  26070.40784722  .00000000  00000+0  00000-0 0  9996
2 56444  33.0000 225.0000 0000000   0.0000  34.5000 14.89338871    15
SEMAPHORE_L_00009046-11
1 56445U 26745ZH  26070.40784722  .00000000  00000+0  00000-0 0  9996
2 56445  33.0000 225.0000 0000000   0.0000  37.5000 14.89338871    19
SEMAPHORE_L_00009046-12
1 56446U 25694VH  26070.40784722  .00000000  00000+0  00000-0 0  9999
2 56446  33.0000 225.0000 0000000   0.0000  40.5000 14.89338871    14
SEMAPHORE_L_00009046-13
1 56447U 26926VC  26070.40784722  .00000000  00000+0  00000-0 0  9999
2 56447  33.0000 225.0000 0000000   0.0000  43.5000 14.89338871    18
SEMAPHORE_L_00009046-14
1 56448U 25299SO  26070.40784722  .00000000  00000+0  00000-0 0  9992
2 56448  33.0000 225.0000 0000000   0.0000  46.5000 14.89338871    12
SEMAPHORE_L_00009046-15
1 56449U 25525KT  26070.40784722  .00000000  00000+0  00000-0 0  9995
2 56449  33.0000 225.0000 0000000   0.0000  49.5000 14.89338871    16
SEMAPHORE_L_00009046-16
1 56450U 22664RL  26070.40784722  .00000000  00000+0  00000-0 0  9998
2 56450  33.0000 225.0000 0000000   0.0000  52.5000 14.89338871    12
SEMAPHORE_L_00009046-17
1 56451U 24066TX  26070.40784722  .00000000  00000+0  00000-0 0  9997
2 56451  33.0000 225.0000 0000000   0.0000  55.5000 14.89338871    16
SEMAPHORE_L_00009046-18
1 56452U 26638LU  26070.40784722  .00000000  00000+0  00000-0 0  9995
2 56452  33.0000 225.0000 0000000   0.0000  58.5000 14.89338871    10
SEMAPHORE_L_00009046-19
1 56453U 23702RD  26070.40784722  .00000000  00000+0  00000-0 0  9995
2 56453  33.0000 225.0000 0000000   0.0000  61.5000 14.89338871    15
SEMAPHORE_L_00009046-20
1 56454U 22412OZ  26070.40784722  .00000000  00000+0  00000-0 0  9993
2 56454  33.0000 225.0000 0000000   0.0000  64.5000 14.89338871    19
SEMAPHORE_L_00009046-21
1 56455U 26196CC  26070.40784722  .00000000  00000+0  00000-0 0  9997
2 56455  33.0000 225.0000 0000000   0.0000  67.5000 14.89338871    13
SEMAPHORE_L_00009046-22
1 56456U 23283IW  26070.40784722  .00000000  00000+0  00000-0 0  9992
2 56456  33.0000 225.0000 0000000   0.0000  70.5000 14.89338871    18
SEMAPHORE_L_00009046-23
1 56457U 24091ZG  26070.40784722  .00000000  00000+0  00000-0 0  9991
2 56457  33.0000 225.0000 0000000   0.0000  73.5000 14.89338871    12
SEMAPHORE_L_00009046-24
1 56458U 22082TT  26070.40784722  .00000000  00000+0  00000-0 0  9990
2 56458  33.0000 225.0000 0000000   0.0000  76.5000 14.89338871    16
SEMAPHORE_L_00009046-25
1 56459U 23213ZS  26070.40784722  .00000000  00000+0  00000-0 0  9998
2 56459  33.0000 225.0000 0000000   0.0000  79.5000 14.89338871    10
SEMAPHORE_L_00009046-26
1 56460U 22925MV  26070.40784722  .00000000  00000+0  00000-0 0  9999
2 56460  33.0000 225.0000 0000000   0.0000  82.5000 14.89338871    16
SEMAPHORE_L_00009046-27
1 56461U 22906DY  26070.40784722  .00000000  00000+0  00000-0 0  9999
2 56461  33.0000 225.0000 0000000   0.0000  85.5000 14.89338871    10
SEMAPHORE_L_00009046-28
1 56462U 24620XY  26070.40784722  .00000000  00000+0  00000-0 0  9995
2 56462  33.0000 225.0000 0000000   0.0000  88.5000 14.89338871    14
SEMAPHORE_L_00009046-29
1 56463U 23445BR  26070.40784722  .00000000  00000+0  00000-0 0  9990
2 56463  33.0000 225.0000 0000000   0.0000  91.5000 14.89338871    19
SEMAPHORE_L_00009046-30
1 56464U 23678DQ  26070.40784722  .00000000  00000+0  00000-0 0  9999
2 56464  33.0000 225.0000 0000000   0.0000  94.5000 14.89338871    13
SEMAPHORE_L_00009046-31
1 56465U 24675IK  26070.40784722  .00000000  00000+0  00000-0 0  9998
2 56465  33.0000 225.0000 0000000   0.0000  97.5000 14.89338871    17
SEMAPHORE_L_00009046-32
1 56466U 26127HL  26070.40784722  .00000000  00000+0  00000-0 0  9993
2 56466  33.0000 225.0000 0000000   0.0000 100.5000 14.89338871    13
SEMAPHORE_L_00009046-33
1 56467U 26008EI  26070.40784722  .00000000  00000+0  00000-0 0  9992
2 56467  33.0000 225.0000 0000000   0.0000 103.5000 14.89338871    17
SEMAPHORE_L_00009046-34
1 56468U 25742MH  26070.40784722  .00000000  00000+0  00000-0 0  9997
2 56468  33.0000 225.0000 0000000   0.0000 106.5000 14.89338871    11
SEMAPHORE_L_00009046-35
1 56469U 24179VL  26070.40784722  .00000000  00000+0  00000-0 0  9991
2 56469  33.0000 225.0000 0000000   0.0000 109.5000 14.89338871    15
SEMAPHORE_L_00009046-36
1 56470U 24904JH  26070.40784722  .00000000  00000+0  00000-0 0  9999
2 56470  33.0000 225.0000 0000000   0.0000 112.5000 14.89338871    11
SEMAPHORE_L_00009046-37
1 56471U 25141SM  26070.40784722  .00000000  00000+0  00000-0 0  9994
2 56471  33.0000 225.0000 0000000   0.0000 115.5000 14.89338871    15
SEMAPHORE_L_00009046-38
1 56472U 24406PM  26070.40784722  .00000000  00000+0  00000-0 0  9998
2 56472  33.0000 225.0000 0000000   0.0000 118.5000 14.89338871    19
SEMAPHORE_L_00009046-39
1 56473U 24432QC  26070.40784722  .00000000  00000+0  00000-0 0  9998
2 56473  33.0000 225.0000 0000000   0.0000 121.5000 14.89338871    14
SEMAPHORE_L_00009046-40
1 56474U 22064EN  26070.40784722  .00000000  00000+0  00000-0 0  9998
2 56474  33.0000 225.0000 0000000   0.0000 124.5000 14.89338871    18
SEMAPHORE_L_00009046-41
1 56475U 22922JM  26070.40784722  .00000000  00000+0  00000-0 0  9992
2 56475  33.0000 225.0000 0000000   0.0000 127.5000 14.89338871    12
SEMAPHORE_L_00009046-42
1 56476U 23334UC  26070.40784722  .00000000  00000+0  00000-0 0  9991
2 56476  33.0000 225.0000 0000000   0.0000 130.5000 14.89338871    17
SEMAPHORE_L_00009046-43
1 56477U 24010GC  26070.40784722  .00000000  00000+0  00000-0 0  9994
2 56477  33.0000 225.0000 0000000   0.0000 133.5000 14.89338871    11
SEMAPHORE_L_00009046-44
1 56478U 23672BY  26070.40784722  .00000000  00000+0  00000-0 0  9998
2 56478  33.0000 225.0000 0000000   0.0000 136.5000 14.89338871    15
SEMAPHORE_L_00009046-45
1 56479U 25128YQ  26070.40784722  .00000000  00000+0  00000-0 0  9997
2 56479  33.0000 225.0000 0000000   0.0000 139.5000 14.89338871    19
SEMAPHORE_L_00009046-46
1 56480U 23206ZE  26070.40784722  .00000000  00000+0  00000-0 0  9994
2 56480  33.0000 225.0000 0000000   0.0000 142.5000 14.89338871    15
SEMAPHORE_L_00009046-47
1 56481U 26265XP  26070.40784722  .00000000  00000+0  00000-0 0  9993
2 56481  33.0000 225.0000 0000000   0.0000 145.5000 14.89338871    19
SEMAPHORE_L_00009046-48
1 56482U 26596MA  26070.40784722  .00000000  00000+0  00000-0 0  9991
2 56482  33.0000 225.0000 0000000   0.0000 148.5000 14.89338871    13
SEMAPHORE_L_00009046-49
1 56483U 24142GV  26070.40784722  .00000000  00000+0  00000-0 0  9997
2 56483  33.0000 225.0000 0000000   0.0000 151.5000 14.89338871    18
SEMAPHORE_L_00009046-50
1 56484U 22003GU  26070.40784722  .00000000  00000+0  00000-0 0  9992
2 56484  33.0000 225.0000 0000000   0.0000 154.5000 14.89338871    12
SEMAPHORE_L_00009046-51
1 56485U 25831WE  26070.40784722  .00000000  00000+0  00000-0 0  9995
2 56485  33.0000 225.0000 0000000   0.0000 157.5000 14.89338871    16
SEMAPHORE_L_00009046-52
1 56486U 24314UT  26070.40784722  .00000000  00000+0  00000-0 0  9991
2 56486  33.0000 225.0000 0000000   0.0000 160.5000 14.89338871    11
SEMAPHORE_L_00009046-53
1 56487U 23891OJ  26070.40784722  .00000000  00000+0  00000-0 0  9991
2 56487  33.0000 225.0000 0000000   0.0000 163.5000 14.89338871    15
SEMAPHORE_L_00009046-54
1 56488U 25789BJ  26070.40784722  .00000000  00000+0  00000-0 0  9990
2 56488  33.0000 225.0000 0000000   0.0000 166.5000 14.89338871    19
SEMAPHORE_L_00009046-55
1 56489U 24146CG  26070.40784722  .00000000  00000+0  00000-0 0  9997
2 56489  33.0000 225.0000 0000000   0.0000 169.5000 14.89338871    13
SEMAPHORE_L_00009046-56
1 56490U 23333WL  26070.40784722  .00000000  00000+0  00000-0 0  9996
2 56490  33.0000 225.0000 0000000   0.0000 172.5000 14.89338871    19
SEMAPHORE_L_00009046-57
1 56491U 22015K   26070.40784722  .00000000  00000+0  00000-0 0  9993
2 56491  33.0000 225.0000 0000000   0.0000 175.5000 14.89338871    13
SEMAPHORE_L_00009046-58
1 56492U 26590AS  26070.40784722  .00000000  00000+0  00000-0 0  9996
2 56492  33.0000 225.0000 0000000   0.0000 178.5000 14.89338871    17
SEMAPHORE_L_00009046-59
1 56493U 26710RR  26070.40784722  .00000000  00000+0  00000-0 0  9991
2 56493  33.0000 225.0000 0000000   0.0000 181.5000 14.89338871    12
SEMAPHORE_L_00009046-60
1 56494U 22818JZ  26070.40784722  .00000000  00000+0  00000-0 0  9997
2 56494  33.0000 225.0000 0000000   0.0000 184.5000 14.89338871    16
